FENGYUN 3D              
1 43010U 17072A   26184.63844244 -.00000120  00000+0 -34912-4 0  9998
2 43010  99.0135 159.3588 0002100  35.2465 324.8849 14.19741528447324
NOAA 20 (JPSS-1)        
1 43013U 17073A   26184.56561738  .00000080  00000+0  59079-4 0  9992
2 43013  98.7772 123.8828 0000907 132.6737 227.4515 14.19514774446799
GOES 17                 
1 43226U 18022A   26183.63617995 -.00000172  00000+0  00000+0 0  9995
2 43226   0.9741  85.4682 0000734  41.6240 293.1097  1.00271770 30575
SENTINEL-3B             
1 43437U 18039A   26183.47802154  .00000140  00000+0  76068-4 0  9998
2 43437  98.6244 250.7906 0000853 115.3560 244.7708 14.26739163426301
FENGYUN 2H              
1 43491U 18050A   26184.59634597 -.00000119  00000+0  00000+0 0  9994
2 43491   3.0714  78.8877 0001802 121.6457  15.0577  1.00269362 29601
METOP-C                 
1 43689U 18087A   26183.76441601  .00000135  00000+0  81723-4 0  9996
2 43689  98.6637 243.0828 0002154 109.5138 250.6273 14.21516397397044
GEO-KOMPSAT-2A          
1 43823U 18100A   26183.83125884 -.00000333  00000+0  00000+0 0  9997
2 43823   0.0451 169.6912 0002255 284.8102 253.8622  1.00268738 27782
METEOR-M2 2             
1 44387U 19038A   26184.61200365 -.00000275  00000+0 -99008-4 0  9996
2 44387  98.9150 172.1403 0001417  23.4090 336.7152 14.24368886363637
ARKTIKA-M 1             
1 47719U 21016A   26180.95192977 -.00000281  00000+0  00000+0 0  9994
2 47719  63.2520  55.7907 7292817 269.9910  14.5481  2.00617895 39040
FENGYUN 3E              
1 49008U 21062A   26184.62048384  .00000077  00000+0  56907-4 0  9992
2 49008  98.7491 187.8451 0002658  58.3390 301.8045 14.19906003258913
GOES 18                 
1 51850U 22021A   26183.76934929  .00000107  00000+0  00000+0 0  9991
2 51850   0.0057 128.3422 0000560  15.0873 277.3340  1.00271504  6743
NOAA 21 (JPSS-2)        
1 54234U 22150A   26183.82276674  .00000058  00000+0  47932-4 0  9991
2 54234  98.7060 122.3492 0002466 126.4917 233.6487 14.19539315188765
METEOSAT-12 (MTG-I1)    
1 54743U 22170C   26183.72509264  .00000004  00000+0  00000+0 0  9992
2 54743   0.7551  25.3200 0003602  74.6137  81.6181  1.00276285 13138
TIANMU-1 03             
1 55973U 23039A   26184.66838220  .00015977  00000+0  30988-3 0  9991
2 55973  97.5238 359.2878 0003543  56.9366 303.2223 15.47757108183380
TIANMU-1 04             
1 55974U 23039B   26184.65141294  .00019501  00000+0  36964-3 0  9996
2 55974  97.5177 358.4255 0004008  51.3479 308.8130 15.48375633183393
TIANMU-1 05             
1 55975U 23039C   26184.71460319  .00019037  00000+0  36960-3 0  9996
2 55975  97.5222 358.9449 0003709  75.0606 285.1054 15.47687721183370
TIANMU-1 06             
1 55976U 23039D   26184.65583689  .00016143  00000+0  30754-3 0  9996
2 55976  97.5228 359.5363 0003930  69.8961 290.2712 15.48270516183391
FENGYUN 3G              
1 56232U 23055A   26184.70705513  .00024465  00000+0  38527-3 0  9990
2 56232  49.9917 260.8582 0007294   5.6123 354.4925 15.53361270182577
METEOR-M2 3             
1 57166U 23091A   26184.68036579  .00000027  00000+0  30645-4 0  9995
2 57166  98.6079 239.3206 0005025 116.1939 243.9757 14.24048310156863
TIANMU-1 07             
1 57399U 23101A   26184.58249410  .00006954  00000+0  24195-3 0  9991
2 57399  97.2579 234.8753 0004253  88.1930 271.9799 15.30000780164154
TIANMU-1 08             
1 57400U 23101B   26184.67989443  .00007037  00000+0  24471-3 0  9991
2 57400  97.2567 234.7387 0005434  75.4870 284.6973 15.30006121164161
TIANMU-1 09             
1 57401U 23101C   26184.59754786  .00008852  00000+0  30679-3 0  9996
2 57401  97.2524 234.0657 0004843  90.6055 269.5741 15.30045591164153
TIANMU-1 10             
1 57402U 23101D   26184.63089332  .00008919  00000+0  30928-3 0  9991
2 57402  97.2605 235.1655 0006320  84.3977 275.7985 15.30018263164154
FENGYUN 3F              
1 57490U 23111A   26184.67447632  .00000094  00000+0  64447-4 0  9994
2 57490  98.6830 254.3756 0001465  82.0151 278.1192 14.19942114151201
ARKTIKA-M 2             
1 58584U 23198A   26180.72239164  .00000148  00000+0  00000+0 0  9995
2 58584  63.2199 152.9641 6905877 267.3845  18.7575  2.00610643 18573
TIANMU-1 11             
1 58645U 23205A   26184.63178954  .00005828  00000+0  22144-3 0  9992
2 58645  97.3439 205.9315 0007135 314.1009  45.9643 15.27165206140038
TIANMU-1 12             
1 58646U 23205B   26183.42334862  .00006720  00000+0  25584-3 0  9994
2 58646  97.3426 204.4940 0005309 296.9950  63.0746 15.27051163139833
TIANMU-1 13             
1 58647U 23205C   26184.63628434  .00006030  00000+0  23033-3 0  9991
2 58647  97.3455 205.9634 0004990 265.1273  94.9397 15.26986592140012
TIANMU-1 14             
1 58648U 23205D   26184.62100935  .00007069  00000+0  26910-3 0  9992
2 58648  97.3392 205.1174 0005755 272.6154  87.4426 15.27033431140011
TIANMU-1 19             
1 58660U 23208A   26184.61931876  .00010776  00000+0  35302-3 0  9998
2 58660  97.4523 301.0065 0003665 247.6224 112.4629 15.31828155139848
