OBJECT_NAME,OBJECT_ID,EPOCH,MEAN_MOTION,ECCENTRICITY,INCLINATION,RA_OF_ASC_NODE,ARG_OF_PERICENTER,MEAN_ANOMALY,EPHEMERIS_TYPE,CLASSIFICATION_TYPE,NORAD_CAT_ID,ELEMENT_SET_NO,REV_AT_EPOCH,BSTAR,MEAN_MOTION_DOT,MEAN_MOTION_DDOT
FENGYUN 3D,2017-072A,2026-07-03T15:19:21.426816,14.19741528,.00021006,99.0135,159.3588,35.2465,324.8849,0,U,43010,999,44732,-.34912222E-4,-.12E-5,0
NOAA 20 (JPSS-1),2017-073A,2026-07-03T13:34:29.341632,14.19514774,.00009074,98.7772,123.8828,132.6737,227.4515,0,U,43013,999,44679,.59079122E-4,.8E-6,0
GOES 17,2018-022A,2026-07-02T15:16:05.947680,1.00271770,.00007345,0.9741,85.4682,41.6240,293.1097,0,U,43226,999,3057,0,-.172E-5,0
SENTINEL-3B,2018-039A,2026-07-02T11:28:21.061056,14.26739163,.0000853,98.6244,250.7906,115.3560,244.7708,0,U,43437,999,42630,.76068E-4,.14E-5,0
FENGYUN 2H,2018-050A,2026-07-03T14:18:44.291808,1.00269362,.00018021,3.0714,78.8877,121.6457,15.0577,0,U,43491,999,2960,0,-.119E-5,0
METOP-C,2018-087A,2026-07-02T18:20:45.543264,14.21516397,.00021547,98.6637,243.0828,109.5138,250.6273,0,U,43689,999,39704,.81723007E-4,.135E-5,0
GEO-KOMPSAT-2A,2018-100A,2026-07-02T19:57:00.763776,1.00268738,.00022559,0.0451,169.6912,284.8102,253.8622,0,U,43823,999,2778,0,-.333E-5,0
METEOR-M2 2,2019-038A,2026-07-03T14:41:17.115360,14.24368886,.00014171,98.9150,172.1403,23.4090,336.7152,0,U,44387,999,36363,-.99007864E-4,-.275E-5,0
ARKTIKA-M 1,2021-016A,2026-06-29T22:50:46.732128,2.00617895,.72928178,63.2520,55.7907,269.9910,14.5481,0,U,47719,999,3904,0,-.281E-5,0
FENGYUN 3E,2021-062A,2026-07-03T14:53:29.803776,14.19906003,.00026583,98.7491,187.8451,58.3390,301.8045,0,U,49008,999,25891,.56906579E-4,.77E-6,0
GOES 18,2022-021A,2026-07-02T18:27:51.778656,1.00271504,.00005607,0.0057,128.3422,15.0873,277.3340,0,U,51850,999,674,0,.107E-5,0
NOAA 21 (JPSS-2),2022-150A,2026-07-02T19:44:47.046336,14.19539315,.00024667,98.7060,122.3492,126.4917,233.6487,0,U,54234,999,18876,.47931902E-4,.58E-6,0
METEOSAT-12 (MTG-I1),2022-170C,2026-07-02T17:24:08.004096,1.00276285,.00036023,0.7551,25.3200,74.6137,81.6181,0,U,54743,999,1313,0,.4E-7,0
TIANMU-1 03,2023-039A,2026-07-03T16:02:28.222080,15.47757108,.00035438,97.5238,359.2878,56.9366,303.2223,0,U,55973,999,18338,.30988484E-3,.15977E-3,0
TIANMU-1 04,2023-039B,2026-07-03T15:38:02.078016,15.48375633,.00040085,97.5177,358.4255,51.3479,308.8130,0,U,55974,999,18339,.36963662E-3,.19501E-3,0
TIANMU-1 05,2023-039C,2026-07-03T17:09:01.715616,15.47687721,.00037099,97.5222,358.9449,75.0606,285.1054,0,U,55975,999,18337,.36960131E-3,.19037E-3,0
TIANMU-1 06,2023-039D,2026-07-03T15:44:24.307296,15.48270516,.00039309,97.5228,359.5363,69.8961,290.2712,0,U,55976,999,18339,.30753847E-3,.16143E-3,0
FENGYUN 3G,2023-055A,2026-07-03T16:58:09.563232,15.53361270,.00072949,49.9917,260.8582,5.6123,354.4925,0,U,56232,999,18257,.38526767E-3,.24465E-3,0
METEOR-M2 3,2023-091A,2026-07-03T16:19:43.604256,14.24048310,.00050257,98.6079,239.3206,116.1939,243.9757,0,U,57166,999,15686,.30644713E-4,.27E-6,0
TIANMU-1 07,2023-101A,2026-07-03T13:58:47.490240,15.30000780,.00042533,97.2579,234.8753,88.1930,271.9799,0,U,57399,999,16415,.24195192E-3,.6954E-4,0
TIANMU-1 08,2023-101B,2026-07-03T16:19:02.878752,15.30006121,.00054345,97.2567,234.7387,75.4870,284.6973,0,U,57400,999,16416,.24471413E-3,.7037E-4,0
TIANMU-1 09,2023-101C,2026-07-03T14:20:28.135104,15.30045591,.00048433,97.2524,234.0657,90.6055,269.5741,0,U,57401,999,16415,.30678715E-3,.8852E-4,0
TIANMU-1 10,2023-101D,2026-07-03T15:08:29.182848,15.30018263,.00063202,97.2605,235.1655,84.3977,275.7985,0,U,57402,999,16415,.30927816E-3,.8919E-4,0
FENGYUN 3F,2023-111A,2026-07-03T16:11:14.754048,14.19942114,.00014654,98.6830,254.3756,82.0151,278.1192,0,U,57490,999,15120,.64447177E-4,.94E-6,0
ARKTIKA-M 2,2023-198A,2026-06-29T17:20:14.637696,2.00610643,.69058771,63.2199,152.9641,267.3845,18.7575,0,U,58584,999,1857,0,.148E-5,0
TIANMU-1 11,2023-205A,2026-07-03T15:09:46.616256,15.27165206,.00071355,97.3439,205.9315,314.1009,45.9643,0,U,58645,999,14003,.22143586E-3,.5828E-4,0
TIANMU-1 12,2023-205B,2026-07-02T10:09:37.320768,15.27051163,.0005309,97.3426,204.4940,296.9950,63.0746,0,U,58646,999,13983,.25584E-3,.672E-4,0
TIANMU-1 13,2023-205C,2026-07-03T15:16:14.966976,15.26986592,.00049901,97.3455,205.9634,265.1273,94.9397,0,U,58647,999,14001,.23033222E-3,.603E-4,0
TIANMU-1 14,2023-205D,2026-07-03T14:54:15.207840,15.27033431,.00057559,97.3392,205.1174,272.6154,87.4426,0,U,58648,999,14001,.26910212E-3,.7069E-4,0
TIANMU-1 19,2023-208A,2026-07-03T14:51:49.140864,15.31828155,.00036658,97.4523,301.0065,247.6224,112.4629,0,U,58660,999,13984,.35301801E-3,.10776E-3,0
